{"retCode":0,"retMsg":"请求成功","data":[{"sorted":"a","nationalCodeList":[{"id":1,"nationalCode":"853","region":"澳门","regionEn":"Macau","pinyin":"a","englishFirst":"m"}]},{"sorted":"j","nationalCodeList":[{"id":2,"nationalCode":"1","region":"加拿大","regionEn":"Canada","pinyin":"j","englishFirst":"c"}]},{"sorted":"m","nationalCodeList":[{"id":3,"nationalCode":"1","region":"美国","regionEn":"America","pinyin":"m","englishFirst":"a"}]},{"sorted":"t","nationalCodeList":[{"id":4,"nationalCode":"886","region":"台湾","regionEn":"Taiwan","pinyin":"t","englishFirst":"t"}]},{"sorted":"x","nationalCodeList":[{"id":5,"nationalCode":"852","region":"香港","regionEn":"Hong Kong","pinyin":"x","englishFirst":"h"},{"id":6,"nationalCode":"65","region":"新加坡","regionEn":"Sigapore","pinyin":"x","englishFirst":"s"}]},{"sorted":"y","nationalCodeList":[{"id":7,"nationalCode":"44","region":"英国","regionEn":"England","pinyin":"y","englishFirst":"e"}]},{"sorted":"z","nationalCodeList":[{"id":8,"nationalCode":"86","region":"中国","regionEn":"China","pinyin":"z","englishFirst":"c"}]}]}
